ONEWEB-0228             
1 48780U 21045P   24223.93330482  .00000102  00000+0  23585-3 0  9992
2 48780  87.9031  33.5480 0001661  88.3682 271.7639 13.15544712155547
